[{"OBJECT_NAME":"STARLINK-1376","OBJECT_ID":"2020-025AR","EPOCH":"2026-03-09T06:17:00.428064","MEAN_MOTION":15.29355327,"ECCENTRICITY":0.00013647,"INCLINATION":53.1611,"RA_OF_ASC_NODE":79.7883,"ARG_OF_PERICENTER":91.4272,"MEAN_ANOMALY":268.6885,"EPHEMERIS_TYPE":0,"CLASSIFICATION_TYPE":"U","NORAD_CAT_ID":45570,"ELEMENT_SET_NO":999,"REV_AT_EPOCH":32543,"BSTAR":2.286897e-6,"MEAN_MOTION_DOT":-2.9e-6,"MEAN_MOTION_DDOT":0},{"OBJECT_NAME":"PHISAT 2","OBJECT_ID":"2024-149C","EPOCH":"2026-03-09T18:55:12.732384","MEAN_MOTION":15.29548632,"ECCENTRICITY":0.00011753,"INCLINATION":97.3806,"RA_OF_ASC_NODE":148.6498,"ARG_OF_PERICENTER":168.623,"MEAN_ANOMALY":191.5037,"EPHEMERIS_TYPE":0,"CLASSIFICATION_TYPE":"U","NORAD_CAT_ID":60470,"ELEMENT_SET_NO":999,"REV_AT_EPOCH":8679,"BSTAR":0.00031420974,"MEAN_MOTION_DOT":8.925e-5,"MEAN_MOTION_DDOT":0}]
